[{"OBJECT_NAME":"COSMOS 2496 (RODNIK-S 10)","OBJECT_ID":"2014-028A","EPOCH":"2026-03-09T22:19:26.511744","MEAN_MOTION":12.42874119,"ECCENTRICITY":0.0018662,"INCLINATION":82.4499,"RA_OF_ASC_NODE":170.89,"ARG_OF_PERICENTER":295.6112,"MEAN_ANOMALY":64.3039,"EPHEMERIS_TYPE":0,"CLASSIFICATION_TYPE":"U","NORAD_CAT_ID":39761,"ELEMENT_SET_NO":999,"REV_AT_EPOCH":53518,"BSTAR":-8.8131281e-5,"MEAN_MOTION_DOT":-3.0e-8,"MEAN_MOTION_DDOT":0},{"OBJECT_NAME":"NOAA 5","OBJECT_ID":"1976-077A","EPOCH":"2026-03-09T22:04:46.728192","MEAN_MOTION":12.37828364,"ECCENTRICITY":0.00098076,"INCLINATION":102.2961,"RA_OF_ASC_NODE":54.4278,"ARG_OF_PERICENTER":160.2514,"MEAN_ANOMALY":255.9496,"EPHEMERIS_TYPE":0,"CLASSIFICATION_TYPE":"U","NORAD_CAT_ID":9057,"ELEMENT_SET_NO":999,"REV_AT_EPOCH":24219,"BSTAR":0.00018719908,"MEAN_MOTION_DOT":-2.2e-7,"MEAN_MOTION_DDOT":0}]
